[{"OBJECT_NAME":"STARLINK-3079","OBJECT_ID":"2021-104AB","EPOCH":"2026-03-09T16:46:38.045280","MEAN_MOTION":15.08832491,"ECCENTRICITY":0.00012454,"INCLINATION":53.2171,"RA_OF_ASC_NODE":209.0808,"ARG_OF_PERICENTER":94.3603,"MEAN_ANOMALY":265.7532,"EPHEMERIS_TYPE":0,"CLASSIFICATION_TYPE":"U","NORAD_CAT_ID":49433,"ELEMENT_SET_NO":999,"REV_AT_EPOCH":24000,"BSTAR":0.00010244304,"MEAN_MOTION_DOT":1.343e-5,"MEAN_MOTION_DDOT":0},{"OBJECT_NAME":"SL-24 PLAT","OBJECT_ID":"2014-033AR","EPOCH":"2026-03-09T22:47:27.152448","MEAN_MOTION":15.0919716,"ECCENTRICITY":0.00052059,"INCLINATION":98.0981,"RA_OF_ASC_NODE":61.9435,"ARG_OF_PERICENTER":212.2329,"MEAN_ANOMALY":147.8581,"EPHEMERIS_TYPE":0,"CLASSIFICATION_TYPE":"U","NORAD_CAT_ID":40049,"ELEMENT_SET_NO":999,"REV_AT_EPOCH":63724,"BSTAR":0.00046923352,"MEAN_MOTION_DOT":7.393e-5,"MEAN_MOTION_DDOT":0}]
